NORAD_CAT_ID,OBJECT_NAME,OBJECT_TYPE,EPOCH,MEAN_MOTION,ECCENTRICITY,INCLINATION,RA_OF_ASC_NODE,ARG_OF_PERICENTER,MEAN_ANOMALY,BSTAR,MEAN_MOTION_DOT,MEAN_MOTION_DDOT,TLE_LINE0,TLE_LINE1,TLE_LINE2,SEMIMAJOR_AXIS,PERIOD,APOGEE,PERIGEE,DECAYED
49151.0,STARLINK-3102,PAYLOAD,2024-06-13 21:21:50,14.98326961,0.0003119,70.0,52.4852,268.6609,91.4193,-1.3983e-06,-1.1e-06,0.0,0 STARLINK-3102,1 49151U 21082X   24165.89017042 -.00000110  00000-0 -13983-5 0  9995,2 49151  70.0000  52.4852 0003119 268.6609  91.4193 14.98326961153225,6950.202,96.107,574.235,569.9,0.0
49151.0,STARLINK-3102,PAYLOAD,2024-06-14 10:10:55,14.98326925,0.0002861,70.0004,51.1379,276.8579,83.2254,7.2587e-05,7.73e-06,0.0,0 STARLINK-3102,1 49151U 21082X   24166.42424909  .00000773  00000-0  72587-4 0  9996,2 49151  70.0004  51.1379 0002861 276.8579  83.2254 14.98326925153305,6950.202,96.107,574.056,570.079,0.0
49151.0,STARLINK-3102,PAYLOAD,2024-06-14 21:23:51,14.98323246,0.000308,70.0003,49.9598,266.011,94.0697,8.6972e-05,9.45e-06,0.0,0 STARLINK-3102,1 49151U 21082X   24166.89157054  .00000945  00000-0  86972-4 0  9995,2 49151  70.0003  49.9598 0003080 266.0110  94.0697 14.98323246153379,6950.214,96.107,574.219,569.938,0.0
49151.0,STARLINK-3102,PAYLOAD,2024-06-15 02:12:16,14.98275073,0.0002628,70.0003,49.4548,263.78,96.306,0.0010146,0.00012016,0.0,0 STARLINK-3102,1 49151U 21082X   24167.09186032  .00012016  00000-0  10146-2 0  9996,2 49151  70.0003  49.4548 0002628 263.7800  96.3060 14.98275073153403,6950.363,96.111,574.054,570.401,0.0
49151.0,STARLINK-3102,PAYLOAD,2024-06-15 23:02:00,14.9833369,0.0003012,70.0002,47.2674,265.7231,94.3584,0.00010066,1.108e-05,0.0,0 STARLINK-3102,1 49151U 21082X   24167.95972356  .00001108  00000-0  10066-3 0  9995,2 49151  70.0002  47.2674 0003012 265.7231  94.3584 14.98333690153539,6950.181,96.107,574.14,569.953,0.0
49151.0,STARLINK-3102,PAYLOAD,2024-06-16 08:38:48,14.98341177,0.0003075,70.0002,46.2573,266.036,94.0448,-0.00013639,-1.72e-05,0.0,0 STARLINK-3102,1 49151U 21082X   24168.36028323 -.00001720  00000-0 -13639-3 0  9998,2 49151  70.0002  46.2573 0003075 266.0360  94.0448 14.98341177153593,6950.158,96.106,574.161,569.886,0.0
49151.0,STARLINK-3102,PAYLOAD,2024-06-16 21:27:55,14.98302848,0.0003731,69.9997,44.9105,288.3939,71.6814,-0.00025118,-3.087e-05,0.0,0 STARLINK-3102,1 49151U 21082X   24168.89439438 -.00003087  00000-0 -25118-3 0  9992,2 49151  69.9997  44.9105 0003731 288.3939  71.6814 14.98302848153676,6950.277,96.109,574.735,569.549,0.0
49151.0,STARLINK-3102,PAYLOAD,2024-06-17 21:29:55,14.98320651,0.0003756,69.9986,42.3841,273.1939,86.8791,-0.00010584,-1.356e-05,0.0,0 STARLINK-3102,1 49151U 21082X   24169.89578580 -.00001356  00000-0 -10584-3 0  9993,2 49151  69.9986  42.3841 0003756 273.1939  86.8791 14.98320651153823,6950.222,96.108,574.697,569.476,0.0
49151.0,STARLINK-3102,PAYLOAD,2024-06-18 02:18:19,14.98334382,0.0003148,69.9992,41.8796,274.5867,85.4933,5.0121e-05,5.05e-06,0.0,0 STARLINK-3102,1 49151U 21082X   24170.09605403  .00000505  00000-0  50121-4 0  9997,2 49151  69.9992  41.8796 0003148 274.5867  85.4933 14.98334382153866,6950.179,96.107,574.232,569.856,0.0
49151.0,STARLINK-3102,PAYLOAD,2024-06-18 08:42:51,14.98339227,0.0003049,69.9995,41.2066,272.6946,87.3864,3.5256e-05,3.28e-06,0.0,0 STARLINK-3102,1 49151U 21082X   24170.36309122  .00000328  00000-0  35256-4 0  9991,2 49151  69.9995  41.2066 0003049 272.6946  87.3864 14.98339227153890,6950.164,96.106,574.148,569.91,0.0
49151.0,STARLINK-3102,PAYLOAD,2024-06-18 21:31:55,14.98327721,0.000283,69.9998,39.8605,272.1259,87.9576,0.00043876,5.146e-05,0.0,0 STARLINK-3102,1 49151U 21082X   24170.89716715  .00005146  00000-0  43876-3 0  9998,2 49151  69.9998  39.8605 0002830 272.1259  87.9576 14.98327721153975,6950.2,96.107,574.032,570.098,0.0
49151.0,STARLINK-3102,PAYLOAD,2024-06-19 00:44:11,14.98330057,0.000316,69.9996,39.5232,279.5783,80.5019,0.00049253,5.789e-05,0.0,0 STARLINK-3102,1 49151U 21082X   24171.03068471  .00005789  00000-0  49253-3 0  9992,2 49151  69.9996  39.5232 0003160 279.5783  80.5019 14.98330057153995,6950.193,96.107,574.254,569.861,0.0
49151.0,STARLINK-3102,PAYLOAD,2024-06-19 19:57:48,14.98332287,0.0002709,70.0,37.5041,272.673,87.4119,3.4407e-05,3.18e-06,0.0,0 STARLINK-3102,1 49151U 21082X   24171.83181424  .00000318  00000-0  34407-4 0  9993,2 49151  70.0000  37.5041 0002709 272.6730  87.4119 14.98332287154124,6950.186,96.107,573.934,570.168,0.0
49151.0,STARLINK-3102,PAYLOAD,2024-06-19 21:33:56,14.98332816,0.0002485,70.0004,37.3339,268.5024,91.5851,6.7021e-05,7.07e-06,0.0,0 STARLINK-3102,1 49151U 21082X   24171.89857253  .00000707  00000-0  67021-4 0  9999,2 49151  70.0004  37.3339 0002485 268.5024  91.5851 14.98332816154124,6950.184,96.107,573.776,570.322,0.0
49151.0,STARLINK-3102,PAYLOAD,2024-06-20 08:46:53,14.98334361,0.0002583,70.0006,36.1569,274.6537,85.4327,-1.0754e-06,-1.06e-06,0.0,0 STARLINK-3102,1 49151U 21082X   24172.36589179 -.00000106  00000-0 -10754-5 0  9998,2 49151  70.0006  36.1569 0002583 274.6537  85.4327 14.98334361154198,6950.179,96.107,573.84,570.249,0.0
49151.0,STARLINK-3102,PAYLOAD,2024-06-20 21:35:57,14.98336655,0.0002752,70.0001,34.8104,271.1903,88.894,-0.00012105,-1.537e-05,0.0,0 STARLINK-3102,1 49151U 21082X   24172.89997012 -.00001537  00000-0 -12105-3 0  9994,2 49151  70.0001  34.8104 0002752 271.1903  88.8940 14.98336655154275,6950.172,96.107,573.95,570.125,0.0
49151.0,STARLINK-3102,PAYLOAD,2024-06-20 23:12:05,14.98336538,0.0002714,70.0003,34.6422,271.6035,88.4813,-0.00012181,-1.546e-05,0.0,0 STARLINK-3102,1 49151U 21082X   24172.96672995 -.00001546  00000-0 -12181-3 0  9996,2 49151  70.0003  34.6422 0002714 271.6035  88.4813 14.98336538154294,6950.173,96.107,573.924,570.151,0.0
49151.0,STARLINK-3102,PAYLOAD,2024-06-21 00:48:13,14.98337367,0.0002806,69.9999,34.4736,270.8318,89.252,-0.00011334,-1.445e-05,0.0,0 STARLINK-3102,1 49151U 21082X   24173.03348864 -.00001445  00000-0 -11334-3 0  9997,2 49151  69.9999  34.4736 0002806 270.8318  89.2520 14.98337367154293,6950.17,96.107,573.985,570.085,0.0
49151.0,STARLINK-3102,PAYLOAD,2024-06-21 21:37:57,14.98335972,0.0002881,69.9999,32.2855,270.3466,89.7363,9.3268e-06,1.8e-07,0.0,0 STARLINK-3102,1 49151U 21082X   24173.90136304  .00000018  00000-0  93268-5 0  9998,2 49151  69.9999  32.2855 0002881 270.3466  89.7363 14.98335972154428,6950.174,96.107,574.042,570.037,0.0
49151.0,STARLINK-3102,PAYLOAD,2024-06-22 00:50:13,14.98337369,0.0002876,70.0,31.9488,270.4567,89.6263,2.48e-05,2.03e-06,0.0,0 STARLINK-3102,1 49151U 21082X   24174.03488121  .00000203  00000-0  24800-4 0  9991,2 49151  70.0000  31.9488 0002876 270.4567  89.6263 14.98337369154452,6950.17,96.107,574.034,570.036,0.0
49151.0,STARLINK-3102,PAYLOAD,2024-06-22 13:39:18,14.98329935,0.0002884,70.0001,30.6023,270.4729,89.61,4.5396e-05,4.49e-06,0.0,0 STARLINK-3102,1 49151U 21082X   24174.56896419  .00000449  00000-0  45396-4 0  9997,2 49151  70.0001  30.6023 0002884 270.4729  89.6100 14.98329935154521,6950.193,96.107,574.063,570.054,0.0
49151.0,STARLINK-3102,PAYLOAD,2024-06-22 20:03:50,14.98329907,0.0002894,70.0001,29.929,270.436,89.6467,4.1728e-05,4.05e-06,0.0,0 STARLINK-3102,1 49151U 21082X   24174.83600417  .00000405  00000-0  41728-4 0  9995,2 49151  70.0001  29.9290 0002894 270.4360  89.6467 14.98329907154570,6950.193,96.107,574.07,570.047,0.0
49151.0,STARLINK-3102,PAYLOAD,2024-06-22 21:39:58,14.98330372,0.0002873,70.0002,29.7612,269.0739,91.0091,3.9959e-05,3.84e-06,0.0,0 STARLINK-3102,1 49151U 21082X   24174.90276383  .00000384  00000-0  39959-4 0  9993,2 49151  70.0002  29.7612 0002873 269.0739  91.0091 14.98330372154576,6950.192,96.107,574.054,570.06,0.0
49151.0,STARLINK-3102,PAYLOAD,2024-06-23 07:16:46,14.98333642,0.0002911,70.0001,28.7515,268.4141,91.6685,4.2757e-05,4.17e-06,0.0,0 STARLINK-3102,1 49151U 21082X   24175.30332086  .00000417  00000-0  42757-4 0  9998,2 49151  70.0001  28.7515 0002911 268.4141  91.6685 14.98333642154634,6950.182,96.107,574.07,570.023,0.0
49151.0,STARLINK-3102,PAYLOAD,2024-06-23 20:05:51,14.98331754,0.0002941,70.0001,27.4049,265.693,94.3893,-2.8539e-05,-4.34e-06,0.0,0 STARLINK-3102,1 49151U 21082X   24175.83740268 -.00000434  00000-0 -28539-4 0  9994,2 49151  70.0001  27.4049 0002941 265.6930  94.3893 14.98331754154723,6950.187,96.107,574.097,570.008,0.0
49151.0,STARLINK-3102,PAYLOAD,2024-06-23 21:41:59,14.98333266,0.0002919,70.0,27.2366,265.1188,94.9638,-1.0288e-05,-2.16e-06,0.0,0 STARLINK-3102,1 49151U 21082X   24175.90416098 -.00000216  00000-0 -10288-4 0  9993,2 49151  70.0000  27.2366 0002919 265.1188  94.9638 14.98333266154720,6950.183,96.107,574.077,570.019,0.0
49151.0,STARLINK-3102,PAYLOAD,2024-06-24 00:54:15,14.98335288,0.0002903,70.0001,26.8998,263.2118,96.8711,1.3397e-05,6.7e-07,0.0,0 STARLINK-3102,1 49151U 21082X   24176.03767854  .00000067  00000-0  13397-4 0  9993,2 49151  70.0001  26.8998 0002903 263.2118  96.8711 14.98335288154743,6950.177,96.107,574.059,570.024,0.0
49151.0,STARLINK-3102,PAYLOAD,2024-06-24 20:07:52,14.98328504,0.0003165,70.0002,24.88,264.7223,95.3575,1.0895e-05,3.7e-07,0.0,0 STARLINK-3102,1 49151U 21082X   24176.83880181  .00000037  00000-0  10895-4 0  9997,2 49151  70.0002  24.8800 0003165 264.7223  95.3575 14.98328504154877,6950.198,96.107,574.262,569.863,0.0
49151.0,STARLINK-3102,PAYLOAD,2024-06-24 21:44:00,14.98328543,0.0002964,70.0003,24.7118,262.2745,97.8077,7.7245e-06,-1e-08,0.0,0 STARLINK-3102,1 49151U 21082X   24176.90556197 -.00000001  00000-0  77245-5 0  9997,2 49151  70.0003  24.7118 0002964 262.2745  97.8077 14.98328543154874,6950.197,96.107,574.122,570.002,0.0
49151.0,STARLINK-3102,PAYLOAD,2024-06-24 23:20:07,14.98380276,0.0003209,70.0001,24.5431,257.0906,102.9895,-0.00087855,-0.00010574,0.0,0 STARLINK-3102,1 49151U 21082X   24176.97230781 -.00010574  00000-0 -87855-3 0  9995,2 49151  70.0001  24.5431 0003209 257.0906 102.9895 14.98380276154891,6950.037,96.104,574.133,569.672,0.0
